ONEWEB-0584             
1 54651U 22166K   23309.85726275  .00000113  00000+0  24299-3 0  9990
2 54651  87.9230  73.9553 0002090  96.7448 263.3923 13.21828320 45448
ONEWEB-0585             
1 54652U 22166L   23309.88247932 -.00004759  00000+0 -11556-1 0  9994
2 54652  87.9231  73.9537 0001740  90.9610 269.1724 13.21847825 45455
ONEWEB-0586             
1 54653U 22166M   23309.89511815  .00000050  00000+0  89202-4 0  9994
2 54653  87.9204  73.9889 0001944  96.0390 264.0965 13.21824924 45450
ONEWEB-0587             
1 54654U 22166N   23309.90459772  .00000122  00000+0  26475-3 0  9992
2 54654  87.9221  73.9373 0001214 101.9955 258.1315 13.21823699 45610
ONEWEB-0589             
1 54655U 22166P   23309.89195602  .00000076  00000+0  15353-3 0  9991
2 54655  87.9232  73.9578 0002731 101.0785 259.0656 13.21830308 45474
ONEWEB-0590             
1 54656U 22166Q   23309.91561499  .00000167  00000+0  37294-3 0  9995
2 54656  87.9231  73.9570 0001495 107.0782 253.0515 13.21831011 45464
ONEWEB-0591             
1 54657U 22166R   23309.85253250 -.00001413  00000+0 -34542-2 0  9991
2 54657  87.9235  73.9694 0001953  90.9850 269.1508 13.21832708 45487
ONEWEB-0592             
1 54658U 22166S   23309.85568294 -.00000167  00000+0 -43587-3 0  9994
2 54658  87.9222  73.9484 0002141 100.5535 259.5841 13.21825842 45360
ONEWEB-0593             
1 54659U 22166T   23309.87935582  .00000096  00000+0  20150-3 0  9995
2 54659  87.9229  73.9562 0001895  99.1456 260.9892 13.21828462 45470
ONEWEB-0594             
1 54660U 22166U   23309.89826751  .00000094  00000+0  19710-3 0  9994
2 54660  87.9225  73.9491 0001545  90.9977 269.1334 13.21827143 45497
ONEWEB-0595             
1 54661U 22166V   23309.87618323  .00000118  00000+0  25347-3 0  9997
2 54661  87.9226  73.9463 0001350 105.8108 254.3175 13.21825434 45461
ONEWEB-0596             
1 54662U 22166W   23309.84938381 -.00005839  00000+0 -14173-1 0  9994
2 54662  87.9231  73.9527 0002172 114.3813 245.7548 13.21855750 45462
ONEWEB-0597             
1 54663U 22166X   23309.90615621  .00000086  00000+0  17577-3 0  9991
2 54663  87.9228  73.9423 0002044  94.1804 265.9563 13.21827325 45476
ONEWEB-0600             
1 54664U 22166Y   23309.88882146  .00000071  00000+0  14117-3 0  9998
2 54664  87.9234  73.9967 0001885  93.0823 267.0527 13.21828407 45440
ONEWEB-0601             
1 54665U 22166Z   23309.88094374  .00001737  00000+0  41743-2 0  9991
2 54665  87.9232  73.9481 0002197 106.9689 253.1686 13.21816642 45632
ONEWEB-0602             
1 54666U 22166AA  23309.84618382  .00005647  00000+0  13625-1 0  9990
2 54666  87.9231  73.9612 0001585 102.6494 257.4817 13.21867898 45479
ONEWEB-0603             
1 54667U 22166AB  23309.85095382 -.00000403  00000+0 -10064-2 0  9993
2 54667  87.9232  73.9572 0002177  97.2974 262.8408 13.21826725 45409
ONEWEB-0604             
1 54668U 22166AC  23309.91404010  .00000123  00000+0  26689-3 0  9991
2 54668  87.9226  73.9407 0002195  89.8854 270.2531 13.21829166 45372
ONEWEB-0605             
1 54669U 22166AD  23309.90773598  .00000099  00000+0  20738-3 0  9992
2 54669  87.9241  73.9686 0002354 106.0843 254.0550 13.21823150 45442
ONEWEB-0606             
1 54670U 22166AE  23309.85410466 -.00000235  00000+0 -59984-3 0  9999
2 54670  87.9230  73.9646 0001325  99.4625 260.6659 13.21827059 45498
ONEWEB-0607             
1 54671U 22166AF  23309.89670948  .00000093  00000+0  19390-3 0  9994
2 54671  87.9221  73.9439 0001978  96.7908 263.3451 13.21824893 45478
ONEWEB-0608             
1 54672U 22166AG  23309.82732387  .00000105  00000+0  22184-3 0  9993
2 54672  87.9231  73.9637 0002414 102.2219 257.9185 13.21823895 45478
ONEWEB-0610             
1 54673U 22166AH  23309.88409919  .00001894  00000+0  45539-2 0  9996
2 54673  87.9236  73.9525 0002337 100.3589 259.7809 13.21814164 45385
ONEWEB-0611             
1 54674U 22166AJ  23309.87777388  .00000051  00000+0  92246-4 0  9997
2 54674  87.9229  73.9554 0001221  89.1448 270.9826 13.21825752 45377
ONEWEB-0612             
1 54675U 22166AK  23309.89040799  .00000958  00000+0  22883-2 0  9993
2 54675  87.9220  73.9432 0002168 100.4076 259.7302 13.21823789 45360
ONEWEB-0615             
1 54676U 22166AL  23309.87147288  .00000116  00000+0  24902-3 0  9994
2 54676  87.9240  73.9628 0001899  91.5319 268.6033 13.21825414 45378
ONEWEB-0655             
1 54677U 22166AM  23309.84467352  .00000129  00000+0  28007-3 0  9993
2 54677  87.9232  73.9729 0002090  91.6964 268.4409 13.21823221 45361
ONEWEB-0659             
1 54678U 22166AN  23309.86199903  .00000018  00000+0  12161-4 0  9992
2 54678  87.9207  73.9914 0001337 102.4619 257.6665 13.21827351 45453
ONEWEB-0685             
1 54679U 22166AP  23309.86356927  .00000072  00000+0  14325-3 0  9997
2 54679  87.9237  73.9630 0002468  91.8693 268.2724 13.21830046 45348
ONEWEB-0712             
1 54680U 22166AQ  23309.87334653  .00000001  00000+0 -30465-4 0  9999
2 54680  87.9228  58.6853 0001252  93.1691 266.9583 13.16594957 46486
ONEWEB-0714             
1 54681U 22166AR  23309.86988481  .00000078  00000+0  15740-3 0  9994
2 54681  87.9230  73.9504 0001915  93.2953 266.8400 13.21826648 45466
ONEWEB-0532             
1 55140U 23004A   23309.97043120 -.00001003  00000+0 -26170-2 0  9990
2 55140  87.9242 195.5217 0002303 105.4725 254.6661 13.17653054 41922
ONEWEB-0533             
1 55141U 23004B   23309.89390646  .00000943  00000+0  25845-2 0  9998
2 55141  87.9115 180.3669 0001717  73.5011 286.6306 13.12452937 42885
ONEWEB-0541             
1 55142U 23004C   23309.78734768  .00000302  00000+0  81620-3 0  9997
2 55142  87.8998 210.6780 0001816  77.3111 282.8220 13.11417644 40851
ONEWEB-0543             
1 55143U 23004D   23309.91667824  .00000015  00000+0  00000+0 0  9991
2 55143  87.5949 165.7191 0002108 266.8854  93.7541 13.63777752  5565
ONEWEB-0544             
1 55144U 23004E   23309.91667824  .00000015  00000+0  00000+0 0  9992
2 55144  87.6002 165.6930 0000655   5.3226 217.1877 13.62620405  5409
ONEWEB-0560             
1 55145U 23004F   23309.91667824  .00000015  00000+0  00000+0 0  9993
2 55145  87.5855 165.6239 0001391  26.2776 153.4375 13.63738499  5574
ONEWEB-0565             
1 55146U 23004G   23309.91667824  .00000015  00000+0  00000+0 0  9994
2 55146  87.6085 165.7099 0000364 142.9477 222.9797 13.63324209  5535
ONEWEB-0567             
1 55147U 23004H   23309.91667824  .00000015  00000+0  00000+0 0  9995
2 55147  87.6041 165.6637 0001903 320.8150 222.6226 13.62373970  5453
ONEWEB-0569             
1 55148U 23004J   23309.86004498  .00001960  00000+0  35092-3 0  9995
2 55148  86.5340 159.3732 0001551 359.5929   0.5283 14.66374383 44152
ONEWEB-0570             
1 55149U 23004K   23309.91667824  .00000015  00000+0  00000+0 0  9997
2 55149  87.5929 165.6537 0001680  37.5298  46.0033 13.62667894  5405
ONEWEB-0571             
1 55150U 23004L   23309.91667824  .00000015  00000+0  00000+0 0  9999
2 55150  87.5905 165.6636 0000889  10.2288  79.6525 13.63397609  5524
ONEWEB-0572             
1 55151U 23004M   23309.92506314  .00000035  00000+0  57816-4 0  9991
2 55151  87.9253 195.5349 0001792  90.2955 269.8382 13.17650290 41814
ONEWEB-0573             
1 55152U 23004N   23309.91667824  .00000015  00000+0  00000+0 0  9991
2 55152  87.5969 165.6927 0002193 328.0407  58.5239 13.62723171  5470
ONEWEB-0588             
1 55153U 23004P   23309.91667824  .00000015  00000+0  00000+0 0  9992
2 55153  87.5837 165.6565 0003524 301.0717 357.0254 13.63712418  5474
ONEWEB-0598             
1 55154U 23004Q   23309.76297411 -.00000541  00000+0 -15628-2 0  9998
2 55154  87.8999 210.7236 0000874  85.4555 274.6673 13.11417164 40800
ONEWEB-0599             
1 55155U 23004R   23309.96301928 -.00000458  00000+0 -12120-2 0  9991
2 55155  87.9251 195.5018 0001628  71.4352 288.6956 13.17647863 41828
ONEWEB-0614             
1 55156U 23004S   23309.68182595 -.00000517  00000+0 -14958-2 0  9995
2 55156  87.9026 210.7280 0002142  77.6634 282.4733 13.11418771 40735
ONEWEB-0616             
1 55157U 23004T   23309.92823826  .00000099  00000+0  22285-3 0  9998
2 55157  88.1150 195.4415 0001999  38.1138 322.0135 13.17650080 42035
ONEWEB-0617             
1 55158U 23004U   23309.74675308 -.00000642  00000+0 -18461-2 0  9995
2 55158  87.9008 210.7253 0001958  88.6332 271.5020 13.11415826 40767
ONEWEB-0618             
1 55159U 23004V   23309.89266132  .00000285  00000+0  11005-3 0  9992
2 55159  86.9132 172.7968 0011700 295.5683  64.4299 14.26681926 43368
ONEWEB-0619             
1 55160U 23004W   23309.96409970  .00000042  00000+0  76178-4 0  9995
2 55160  87.9244 195.4990 0002356  66.8459 293.2920 13.17649245 41930
ONEWEB-0620             
1 55161U 23004X   23309.97077477  .00000006  00000+0 -18308-4 0  9992
2 55161  87.9013 210.6844 0001722  93.0190 267.1135 13.11414579 40765
ONEWEB-0621             
1 55162U 23004Y   23309.76786738 -.00000431  00000+0 -12512-2 0  9999
2 55162  87.8996 210.7071 0002184  72.6745 287.4621 13.11420558 40714
ONEWEB-0622             
1 55163U 23004Z   23309.77434340 -.00000446  00000+0 -12954-2 0  9996
2 55163  87.9002 210.7173 0002253  98.1410 261.9974 13.11418071 40700
ONEWEB-0623             
1 55164U 23004AA  23309.95777112  .00000086  00000+0  18724-3 0  9994
2 55164  87.9226 195.5619 0002389  91.9770 268.1635 13.17647756 41922
ONEWEB-0624             
1 55165U 23004AB  23309.93413221  .00023733  00000+0  65878-1 0  9995
2 55165  87.9150 180.3487 0002475  74.2166 285.9235 13.12326001 42884
ONEWEB-0625             
1 55166U 23004AC  23309.94510942 -.00000010  00000+0 -59976-4 0  9995
2 55166  87.9229 195.5627 0001874  66.3492 293.7836 13.17651661 41917
ONEWEB-0626             
1 55167U 23004AD  23309.93244100 -.00000015  00000+0 -70903-4 0  9993
2 55167  87.9246 195.5563 0001239  91.3594 268.7680 13.17648720 41913
